[
  { 
    "name" : "SKYSAT-C6",
    "tle_line_1" : "1 42992U 17068F   22116.28015741  .00012305  00000+0  32860-3 0  9990",
    "tle_line_2" : "2 42992  97.2912 236.6066 0001969  77.0542 283.0923 15.38244278250432" 
  },
  { 
    "name" : "CARTOSAT-2F",
    "tle_line_1" : "1 43111U 18004A   22116.92816064  .00004330  00000+0  20883-3 0  9994",
    "tle_line_2" : "2 43111  97.4531 178.0354 0003396 203.5244 273.7070 15.19223965237720" 
  },
  { 
    "name" : "NUSAT-4 (ADA)",
    "tle_line_1" : "1 43195U 18015D   22116.91577551  .00014693  00000+0  51820-3 0  9990",
    "tle_line_2" : "2 43195  97.5261 257.2659 0014744 225.7208 251.1599 15.29262129235355" 
  },
  { 
    "name" : "NUSAT-5 (MARYAM)",
    "tle_line_1" : "1 43204U 18015K   22116.92354444  .00015126  00000+0  52777-3 0  9990",
    "tle_line_2" : "2 43204  97.5268 257.8152 0014137 227.4939 248.3161 15.29614598234985" 
  },
  { 
    "name" : "GAOFEN 1-02",
    "tle_line_1" : "1 43259U 18031A   22116.81147550  .00000783  00000+0  11941-3 0  9995",
    "tle_line_2" : "2 43259  97.9004 194.5081 0004431 153.7366 206.4067 14.76542867219529" 
  },
  { 
    "name" : "GAOFEN 1-03",
    "tle_line_1" : "1 43260U 18031B   22116.78985926  .00000743  00000+0  11369-3 0  9990",
    "tle_line_2" : "2 43260  97.9002 194.4579 0004548 235.6629 124.4160 14.76546911219517" 
  },
  { 
    "name" : "GAOFEN 1-04",
    "tle_line_1" : "1 43262U 18031D   22116.76523953  .00000782  00000+0  11941-3 0  9997",
    "tle_line_2" : "2 43262  97.9008 194.4646 0004307 177.9173 182.2051 14.76532045219508" 
  },
  { 
    "name" : "SENTINEL-3B",
    "tle_line_1" : "1 43437U 18039A   22116.41765908  .00000093  00000+0  56543-4 0  9992",
    "tle_line_2" : "2 43437  98.6316 184.4408 0001386  82.2527 277.8811 14.26736634208410" 
  },
  { 
    "name" : "GAOFEN 5-01",
    "tle_line_1" : "1 43461U 18043A   22116.53847908  .00000350  00000+0  86384-4 0  9990",
    "tle_line_2" : "2 43461  98.2666  57.3740 0003195  91.7953 268.3612 14.57941075211099" 
  },
  { 
    "name" : "GAOFEN 6",
    "tle_line_1" : "1 43484U 18048A   22116.86479980  .00000663  00000+0  10221-3 0  9990",
    "tle_line_2" : "2 43484  97.9292 198.0962 0010201  21.3154 338.8474 14.76576709210224" 
  },
  { 
    "name" : "GAOFEN 11-1",
    "tle_line_1" : "1 43585U 18063A   22116.93042274  .00006164  00000+0  25949-3 0  9994",
    "tle_line_2" : "2 43585  97.3206 194.2855 0015199 354.7481  91.6569 15.23619619208543" 
  },
  { 
    "name" : "AEOLUS",
    "tle_line_1" : "1 43600U 18066A   22116.66051628  .00103486  00000+0  39880-3 0  9992",
    "tle_line_2" : "2 43600  96.7066 123.4593 0009299 105.0362 255.1940 15.86976415212915" 
  },
  { 
    "name" : "ICESAT-2",
    "tle_line_1" : "1 43613U 18070A   22116.85498794  .00011106  00000+0  40295-3 0  9990",
    "tle_line_2" : "2 43613  92.0005 244.2611 0000719 139.9014 220.2289 15.28302500201496" 
  },
  { 
    "name" : "HYSIS",
    "tle_line_1" : "1 43719U 18096A   22116.80303113  .00001005  00000+0  14411-3 0  9998",
    "tle_line_2" : "2 43719  97.9611 183.4330 0002502  42.8293 317.3115 14.78698386183922" 
  },
  { 
    "name" : "KAZSTSAT",
    "tle_line_1" : "1 43783U 18099AB  22116.46016387  .00001155  00000+0  11377-3 0  9992",
    "tle_line_2" : "2 43783  97.6338 183.2866 0009603  85.1086 275.1230 14.93906733185046" 
  },
  { 
    "name" : "SAUDISAT 5A",
    "tle_line_1" : "1 43831U 18102A   22116.84227398  .00002801  00000+0  18100-3 0  9999",
    "tle_line_2" : "2 43831  97.4982 191.1811 0013966   2.4449 133.6271 15.08958088186392" 
  },
  { 
    "name" : "SAUDISAT 5B",
    "tle_line_1" : "1 43833U 18102C   22116.88048461  .00002562  00000+0  16384-3 0  9993",
    "tle_line_2" : "2 43833  97.5007 192.1074 0015189   8.6089 125.1734 15.09404824186443" 
  },
  { 
    "name" : "GAOFEN 10R",
    "tle_line_1" : "1 44622U 19066A   22116.87229607  .00001243  00000+0  16765-3 0  9990",
    "tle_line_2" : "2 44622  97.8891  56.9725 0001357  90.6704 269.4682 14.80869598138375" 
  },
  { 
    "name" : "CARTOSAT-3",
    "tle_line_1" : "1 44804U 19081A   22116.81132889  .00003814  00000+0  18387-3 0  9996",
    "tle_line_2" : "2 44804  97.4021 179.4348 0013957  41.7911  87.3574 15.19227339133798" 
  },
  { 
    "name" : "GAOFEN 12-1",
    "tle_line_1" : "1 44819U 19082A   22116.89282160  .00000373  00000+0  55745-4 0  9996",
    "tle_line_2" : "2 44819  97.8656 138.3242 0001508  64.6845 295.4534 14.80240589130310" 
  },
  { 
    "name" : "CSG-1",
    "tle_line_1" : "1 44873U 19092A   22116.81532482  .00000894  00000+0  11885-3 0  9998",
    "tle_line_2" : "2 44873  97.8892 301.2264 0001553  83.7273 276.4120 14.82153838127457" 
  },
  { 
    "name" : "NUSAT-7 (SOPHIE)",
    "tle_line_1" : "1 45017U 20003B   22116.93201605  .00013942  00000+0  42956-3 0  9997",
    "tle_line_2" : "2 45017  97.2205 179.9080 0012703 176.9820 356.0800 15.33647765127328" 
  },
  { 
    "name" : "NUSAT-8 (MARIE)",
    "tle_line_1" : "1 45018U 20003C   22116.95392566  .00017167  00000+0  48530-3 0  9994",
    "tle_line_2" : "2 45018  97.2331 181.3136 0011800 177.7768 308.7000 15.36328383127359" 
  },
  { 
    "name" : "NUSAT-6 (HYPATIA)",
    "tle_line_1" : "1 46272U 20061A   22116.58262781  .00008577  00000+0  35521-3 0  9996",
    "tle_line_2" : "2 46272  97.3302 188.6606 0005657 249.8686 110.1948 15.24146488 91320" 
  },
  { 
    "name" : "NEMO-HD",
    "tle_line_1" : "1 46277U 20061F   22116.89789394  .00003153  00000+0  16195-3 0  9990",
    "tle_line_2" : "2 46277  97.3939 188.7725 0002220  44.7730  71.6832 15.17211968 91049" 
  },
  { 
    "name" : "NUSAT-12 (DOROTHY)",
    "tle_line_1" : "1 46827U 20079A   22116.91879141  .00017447  00000+0  49984-3 0  9996",
    "tle_line_2" : "2 46827  97.2008 188.0499 0010106 123.6519 351.3147 15.35925330 82199" 
  },
  { 
    "name" : "NUSAT-9 (ALICE)",
    "tle_line_1" : "1 46828U 20079B   22116.94104390  .00017282  00000+0  48913-3 0  9995",
    "tle_line_2" : "2 46828  97.1876 187.7776 0004208 151.8077  21.7847 15.36348467 82235" 
  },
  { 
    "name" : "NUSAT-11 (CORA)",
    "tle_line_1" : "1 46829U 20079C   22116.94958292  .00017559  00000+0  49584-3 0  9996",
    "tle_line_2" : "2 46829  97.1940 188.0347 0008196 135.1955  36.7212 15.36391806 82222" 
  },
  { 
    "name" : "NUSAT-15 (KATHERINE)",
    "tle_line_1" : "1 46830U 20079D   22116.92464251  .00017232  00000+0  48796-3 0  9995",
    "tle_line_2" : "2 46830  97.2084 189.0651 0005596 108.9051   5.8189 15.36328375 82231" 
  },
  { 
    "name" : "NUSAT-14 (HEDY)",
    "tle_line_1" : "1 46831U 20079E   22116.80086139  .00014708  00000+0  40754-3 0  9999",
    "tle_line_2" : "2 46831  97.2049 188.7137 0009570 121.5827  18.0394 15.37009378 82218" 
  },
  { 
    "name" : "NUSAT-10 (CAROLINE)",
    "tle_line_1" : "1 46832U 20079F   22116.81796606  .00016227  00000+0  45988-3 0  9990",
    "tle_line_2" : "2 46832  97.2054 188.5631 0009075 134.1717   0.0689 15.36288340 82204" 
  },
  { 
    "name" : "NUSAT-13 (EMMY)",
    "tle_line_1" : "1 46833U 20079G   22116.94247850  .00016056  00000+0  45739-3 0  9991",
    "tle_line_2" : "2 46833  97.2051 188.7011 0009149 134.6844  38.5321 15.36128179 82228" 
  },
  { 
    "name" : "NUSAT-17 (MARY)",
    "tle_line_1" : "1 46835U 20079J   22116.82847703  .00016273  00000+0  46750-3 0  9998",
    "tle_line_2" : "2 46835  97.2046 188.3812 0009213 145.5130 351.4238 15.35861586 82195" 
  },
  { 
    "name" : "NUSAT-18 (VERA)",
    "tle_line_1" : "1 46836U 20079K   22116.95405271  .00016772  00000+0  47530-3 0  9994",
    "tle_line_2" : "2 46836  97.2057 188.8501 0009996 152.6757 324.9701 15.36275635 82230" 
  },
  { 
    "name" : "NUSAT-16 (LISE)",
    "tle_line_1" : "1 46840U 20079P   22116.91598958  .00017137  00000+0  48666-3 0  9997",
    "tle_line_2" : "2 46840  97.2098 188.8700 0007054 145.2633 330.0837 15.36230916 82225" 
  },
  { 
    "name" : "SENTINEL-6",
    "tle_line_1" : "1 46984U 20086A   22116.20811451 -.00000061  00000+0  00000+0 0  9997",
    "tle_line_2" : "2 46984  66.0453  37.5396 0007912 266.5248  93.4859 12.80930222 66674" 
  },
  { 
    "name" : "GAOFEN 12-2",
    "tle_line_1" : "1 48079U 21026A   22116.92224695  .00000432  00000+0  63637-4 0  9997",
    "tle_line_2" : "2 48079  97.8921 108.4611 0001624  82.4014 277.7393 14.80208532 58003" 
  },
  { 
    "name" : "PLEIADES NEO 3",
    "tle_line_1" : "1 48268U 21034A   22116.86353706 -.00000024  00000+0  35913-5 0  9990",
    "tle_line_2" : "2 48268  97.8916 192.3306 0001360  89.3458 270.7894 14.81672857 53713" 
  },
  { 
    "name" : "NUSAT-19 (ROSALIND)",
    "tle_line_1" : "1 48905U 21059AC  22116.77666051  .00007392  00000+0  36017-3 0  9993",
    "tle_line_2" : "2 48905  97.4993 246.8828 0008928 251.2641 246.5614 15.18604862 46228" 
  },
  { 
    "name" : "NUSAT-22 (SOFYA)",
    "tle_line_1" : "1 48919U 21059AS  22116.85636506  .00019558  00000+0  55640-3 0  9999",
    "tle_line_2" : "2 48919  97.3590 248.3451 0013177 214.6129 296.7507 15.36087696 46600" 
  },
  { 
    "name" : "NUSAT-21 (ELISA)",
    "tle_line_1" : "1 48920U 21059AT  22116.89569034  .00019226  00000+0  54732-3 0  9999",
    "tle_line_2" : "2 48920  97.3449 248.0330 0012914 229.0357 248.6351 15.36075201 46612" 
  },
  { 
    "name" : "NUSAT-20 (GRACE)",
    "tle_line_1" : "1 48921U 21059AU  22116.93428860  .00019034  00000+0  54177-3 0  9996",
    "tle_line_2" : "2 48921  97.3560 248.4200 0012706 247.6361 230.9924 15.36084896 46617" 
  },
  { 
    "name" : "PLEIADES NEO 4",
    "tle_line_1" : "1 49070U 21073E   22116.82975763 -.00000044  00000+0  10626-5 0  9990",
    "tle_line_2" : "2 49070  97.8922 192.2941 0001361  84.5972 275.5368 14.81673398 37425" 
  },
  { 
    "name" : "LANDSAT 9",
    "tle_line_1" : "1 49260U 21088A   22116.75044538  .00000298  00000+0  76176-4 0  9997",
    "tle_line_2" : "2 49260  98.1893 187.7333 0001735 101.7755 258.3638 14.57112996 30749" 
  }
]